CCSDS_OMM_VERS = 2.0
CREATION_DATE  = 
ORIGINATOR     = 

OBJECT_NAME    = IDEFIX & ARIANE 42P R/B
OBJECT_ID      = 2002-021B
CENTER_NAME    = EARTH
REF_FRAME      = TEME
TIME_SYSTEM    = UTC
MEAN_ELEMENT_THEORY = SGP/SGP4

EPOCH          = 2025-12-04T06:17:43.490688
MEAN_MOTION    = 14.30940936
ECCENTRICITY   = .00128469
INCLINATION    = 98.5774
RA_OF_ASC_NODE = 273.0637
ARG_OF_PERICENTER = 106.5173
MEAN_ANOMALY   = 253.7422

EPHEMERIS_TYPE = 0
CLASSIFICATION_TYPE = U
NORAD_CAT_ID   = 27422
ELEMENT_SET_NO = 999
REV_AT_EPOCH   = 23037
BSTAR          = .26348113E-3
MEAN_MOTION_DOT = .649E-5
MEAN_MOTION_DDOT = 0

CCSDS_OMM_VERS = 2.0
CREATION_DATE  = 
ORIGINATOR     = 

OBJECT_NAME    = AQUA
OBJECT_ID      = 2002-022A
CENTER_NAME    = EARTH
REF_FRAME      = TEME
TIME_SYSTEM    = UTC
MEAN_ELEMENT_THEORY = SGP/SGP4

EPOCH          = 2025-12-04T08:33:04.320000
MEAN_MOTION    = 14.61778430
ECCENTRICITY   = .00007763
INCLINATION    = 98.4025
RA_OF_ASC_NODE = 299.0998
ARG_OF_PERICENTER = 110.2594
MEAN_ANOMALY   = 43.9931

EPHEMERIS_TYPE = 0
CLASSIFICATION_TYPE = U
NORAD_CAT_ID   = 27424
ELEMENT_SET_NO = 999
REV_AT_EPOCH   = 25480
BSTAR          = .44137996E-3
MEAN_MOTION_DOT = .2153E-4
MEAN_MOTION_DDOT = 0

CCSDS_OMM_VERS = 2.0
CREATION_DATE  = 
ORIGINATOR     = 

OBJECT_NAME    = CZ-4B R/B
OBJECT_ID      = 2002-024C
CENTER_NAME    = EARTH
REF_FRAME      = TEME
TIME_SYSTEM    = UTC
MEAN_ELEMENT_THEORY = SGP/SGP4

EPOCH          = 2025-12-04T03:47:21.975072
MEAN_MOTION    = 14.14525140
ECCENTRICITY   = .00492202
INCLINATION    = 98.9013
RA_OF_ASC_NODE = 26.9591
ARG_OF_PERICENTER = 294.7671
MEAN_ANOMALY   = 128.6715

EPHEMERIS_TYPE = 0
CLASSIFICATION_TYPE = U
NORAD_CAT_ID   = 27432
ELEMENT_SET_NO = 999
REV_AT_EPOCH   = 21573
BSTAR          = .96906807E-4
MEAN_MOTION_DOT = .143E-5
MEAN_MOTION_DDOT = 0

CCSDS_OMM_VERS = 2.0
CREATION_DATE  = 
ORIGINATOR     = 

OBJECT_NAME    = MIDORI II (ADEOS-II)
OBJECT_ID      = 2002-056A
CENTER_NAME    = EARTH
REF_FRAME      = TEME
TIME_SYSTEM    = UTC
MEAN_ELEMENT_THEORY = SGP/SGP4

EPOCH          = 2025-12-04T07:32:39.485760
MEAN_MOTION    = 14.29197286
ECCENTRICITY   = .00002708
INCLINATION    = 98.7623
RA_OF_ASC_NODE = 291.2270
ARG_OF_PERICENTER = 7.9672
MEAN_ANOMALY   = 352.1514

EPHEMERIS_TYPE = 0
CLASSIFICATION_TYPE = U
NORAD_CAT_ID   = 27597
ELEMENT_SET_NO = 999
REV_AT_EPOCH   = 19667
BSTAR          = .25343192E-3
MEAN_MOTION_DOT = .598E-5
MEAN_MOTION_DDOT = 0

CCSDS_OMM_VERS = 2.0
CREATION_DATE  = 
ORIGINATOR     = 

OBJECT_NAME    = H-2A R/B
OBJECT_ID      = 2002-056E
CENTER_NAME    = EARTH
REF_FRAME      = TEME
TIME_SYSTEM    = UTC
MEAN_ELEMENT_THEORY = SGP/SGP4

EPOCH          = 2025-12-03T22:52:17.084928
MEAN_MOTION    = 14.33665277
ECCENTRICITY   = .0071507
INCLINATION    = 98.3052
RA_OF_ASC_NODE = 297.0604
ARG_OF_PERICENTER = 86.9124
MEAN_ANOMALY   = 314.7601

EPHEMERIS_TYPE = 0
CLASSIFICATION_TYPE = U
NORAD_CAT_ID   = 27601
ELEMENT_SET_NO = 999
REV_AT_EPOCH   = 20039
BSTAR          = .23204E-3
MEAN_MOTION_DOT = .621E-5
MEAN_MOTION_DDOT = 0

CCSDS_OMM_VERS = 2.0
CREATION_DATE  = 
ORIGINATOR     = 

OBJECT_NAME    = CZ-4B R/B
OBJECT_ID      = 2003-049C
CENTER_NAME    = EARTH
REF_FRAME      = TEME
TIME_SYSTEM    = UTC
MEAN_ELEMENT_THEORY = SGP/SGP4

EPOCH          = 2025-12-04T04:55:34.347360
MEAN_MOTION    = 14.54897878
ECCENTRICITY   = .00485552
INCLINATION    = 98.6780
RA_OF_ASC_NODE = 324.4471
ARG_OF_PERICENTER = 161.8342
MEAN_ANOMALY   = 198.4602

EPHEMERIS_TYPE = 0
CLASSIFICATION_TYPE = U
NORAD_CAT_ID   = 28059
ELEMENT_SET_NO = 999
REV_AT_EPOCH   = 17271
BSTAR          = .19415591E-3
MEAN_MOTION_DOT = .796E-5
MEAN_MOTION_DDOT = 0

CCSDS_OMM_VERS = 2.0
CREATION_DATE  = 
ORIGINATOR     = 

OBJECT_NAME    = CZ-2C R/B
OBJECT_ID      = 2004-012C
CENTER_NAME    = EARTH
REF_FRAME      = TEME
TIME_SYSTEM    = UTC
MEAN_ELEMENT_THEORY = SGP/SGP4

EPOCH          = 2025-12-04T05:53:50.481888
MEAN_MOTION    = 15.54658973
ECCENTRICITY   = .00168655
INCLINATION    = 97.7439
RA_OF_ASC_NODE = 30.1710
ARG_OF_PERICENTER = 303.5355
MEAN_ANOMALY   = 56.4286

EPHEMERIS_TYPE = 0
CLASSIFICATION_TYPE = U
NORAD_CAT_ID   = 28222
ELEMENT_SET_NO = 999
REV_AT_EPOCH   = 18940
BSTAR          = .10402424E-2
MEAN_MOTION_DOT = .69687E-3
MEAN_MOTION_DDOT = 0

CCSDS_OMM_VERS = 2.0
CREATION_DATE  = 
ORIGINATOR     = 

OBJECT_NAME    = SL-16 R/B
OBJECT_ID      = 2004-021B
CENTER_NAME    = EARTH
REF_FRAME      = TEME
TIME_SYSTEM    = UTC
MEAN_ELEMENT_THEORY = SGP/SGP4

EPOCH          = 2025-12-04T06:39:22.192416
MEAN_MOTION    = 14.14582744
ECCENTRICITY   = .00057387
INCLINATION    = 71.0023
RA_OF_ASC_NODE = 72.7230
ARG_OF_PERICENTER = 211.8406
MEAN_ANOMALY   = 148.2370

EPHEMERIS_TYPE = 0
CLASSIFICATION_TYPE = U
NORAD_CAT_ID   = 28353
ELEMENT_SET_NO = 999
REV_AT_EPOCH   = 10934
BSTAR          = -.10226611E-4
MEAN_MOTION_DOT = -.67E-6
MEAN_MOTION_DDOT = 0

CCSDS_OMM_VERS = 2.0
CREATION_DATE  = 
ORIGINATOR     = 

OBJECT_NAME    = CZ-4B R/B
OBJECT_ID      = 2004-035C
CENTER_NAME    = EARTH
REF_FRAME      = TEME
TIME_SYSTEM    = UTC
MEAN_ELEMENT_THEORY = SGP/SGP4

EPOCH          = 2025-12-04T01:03:16.612992
MEAN_MOTION    = 15.27154637
ECCENTRICITY   = .0032139
INCLINATION    = 97.3616
RA_OF_ASC_NODE = 8.5055
ARG_OF_PERICENTER = 309.7753
MEAN_ANOMALY   = 50.0656

EPHEMERIS_TYPE = 0
CLASSIFICATION_TYPE = U
NORAD_CAT_ID   = 28415
ELEMENT_SET_NO = 999
REV_AT_EPOCH   = 16530
BSTAR          = .5825747E-3
MEAN_MOTION_DOT = .15687E-3
MEAN_MOTION_DDOT = 0

CCSDS_OMM_VERS = 2.0
CREATION_DATE  = 
ORIGINATOR     = 

OBJECT_NAME    = CZ-2C R/B
OBJECT_ID      = 2004-046B
CENTER_NAME    = EARTH
REF_FRAME      = TEME
TIME_SYSTEM    = UTC
MEAN_ELEMENT_THEORY = SGP/SGP4

EPOCH          = 2025-12-04T06:20:16.332288
MEAN_MOTION    = 14.26934870
ECCENTRICITY   = .01406858
INCLINATION    = 98.1983
RA_OF_ASC_NODE = 254.1691
ARG_OF_PERICENTER = 77.1705
MEAN_ANOMALY   = 284.5153

EPHEMERIS_TYPE = 0
CLASSIFICATION_TYPE = U
NORAD_CAT_ID   = 28480
ELEMENT_SET_NO = 999
REV_AT_EPOCH   = 9489
BSTAR          = .14664955E-3
MEAN_MOTION_DOT = .356E-5
MEAN_MOTION_DDOT = 0

CCSDS_OMM_VERS = 2.0
CREATION_DATE  = 
ORIGINATOR     = 

OBJECT_NAME    = ARIANE 5 R/B
OBJECT_ID      = 2004-049H
CENTER_NAME    = EARTH
REF_FRAME      = TEME
TIME_SYSTEM    = UTC
MEAN_ELEMENT_THEORY = SGP/SGP4

EPOCH          = 2025-12-04T00:40:02.851392
MEAN_MOTION    = 14.84981092
ECCENTRICITY   = .00835455
INCLINATION    = 98.2520
RA_OF_ASC_NODE = 137.9969
ARG_OF_PERICENTER = 301.5778
MEAN_ANOMALY   = 57.7298

EPHEMERIS_TYPE = 0
CLASSIFICATION_TYPE = U
NORAD_CAT_ID   = 28499
ELEMENT_SET_NO = 999
REV_AT_EPOCH   = 13159
BSTAR          = .21394231E-3
MEAN_MOTION_DOT = .1876E-4
MEAN_MOTION_DDOT = 0

CCSDS_OMM_VERS = 2.0
CREATION_DATE  = 
ORIGINATOR     = 

OBJECT_NAME    = CZ-2D R/B
OBJECT_ID      = 2005-024B
CENTER_NAME    = EARTH
REF_FRAME      = TEME
TIME_SYSTEM    = UTC
MEAN_ELEMENT_THEORY = SGP/SGP4

EPOCH          = 2025-12-04T00:32:27.346272
MEAN_MOTION    = 15.52524946
ECCENTRICITY   = .00068632
INCLINATION    = 97.3626
RA_OF_ASC_NODE = 345.2459
ARG_OF_PERICENTER = 34.6483
MEAN_ANOMALY   = 325.5216

EPHEMERIS_TYPE = 0
CLASSIFICATION_TYPE = U
NORAD_CAT_ID   = 28738
ELEMENT_SET_NO = 999
REV_AT_EPOCH   = 12490
BSTAR          = .65969418E-3
MEAN_MOTION_DOT = .40523E-3
MEAN_MOTION_DDOT = 0

