IDEFIX & ARIANE 42P R/B 
1 27422U 02021B   25338.26230892  .00000649  00000+0  26348-3 0  9999
2 27422  98.5774 273.0637 0012846 106.5173 253.7422 14.30940936230370
AQUA                    
1 27424U 02022A   25338.35630000  .00002153  00000+0  44138-3 0  9996
2 27424  98.4025 299.0998 0000776 110.2594  43.9931 14.61778430254806
CZ-4B R/B               
1 27432U 02024C   25338.15789323  .00000143  00000+0  96907-4 0  9997
2 27432  98.9013  26.9591 0049220 294.7671 128.6715 14.14525140215730
MIDORI II (ADEOS-II)    
1 27597U 02056A   25338.31434590  .00000598  00000+0  25343-3 0  9994
2 27597  98.7623 291.2270 0000270   7.9672 352.1514 14.29197286196679
H-2A R/B                
1 27601U 02056E   25337.95297552  .00000621  00000+0  23204-3 0  9995
2 27601  98.3052 297.0604 0071507  86.9124 314.7601 14.33665277200393
CZ-4B R/B               
1 28059U 03049C   25338.20525865  .00000796  00000+0  19416-3 0  9999
2 28059  98.6780 324.4471 0048555 161.8342 198.4602 14.54897878172710
CZ-2C R/B               
1 28222U 04012C   25338.24572317  .00069687  00000+0  10402-2 0  9999
2 28222  97.7439  30.1710 0016865 303.5355  56.4286 15.54658973189405
SL-16 R/B               
1 28353U 04021B   25338.27734019 -.00000067  00000+0 -10227-4 0  9992
2 28353  71.0023  72.7230 0005738 211.8406 148.2370 14.14582744109344
CZ-4B R/B               
1 28415U 04035C   25338.04394228  .00015687  00000+0  58257-3 0  9991
2 28415  97.3616   8.5055 0032139 309.7753  50.0656 15.27154637165307
CZ-2C R/B               
1 28480U 04046B   25338.26407792  .00000356  00000+0  14665-3 0  9992
2 28480  98.1983 254.1691 0140685  77.1705 284.5153 14.26934870 94893
ARIANE 5 R/B            
1 28499U 04049H   25338.02781078  .00001876  00000+0  21394-3 0  9996
2 28499  98.2520 137.9969 0083545 301.5778  57.7298 14.84981092131593
CZ-2D R/B               
1 28738U 05024B   25338.02253873  .00040523  00000+0  65969-3 0  9991
2 28738  97.3626 345.2459 0006863  34.6483 325.5216 15.52524946124909
